ONEWEB-0388             
1 49314U 21090AM  26163.93465255 -.00000042  00000+0 -13724-3 0  9997
2 49314  87.9165 305.8168 0001857  93.4263 266.7083 13.19725008225858
ONEWEB-0389             
1 50469U 21132A   26164.09816263  .00000097  00000+0  21558-3 0  9996
2 50469  87.9134   6.6816 0002165  82.9757 277.1621 13.17649075217545
ONEWEB-0390             
1 50470U 21132B   26164.09985004  .00000096  00000+0  21376-3 0  9995
2 50470  87.9136   6.6821 0001934  94.1679 265.9673 13.17649016217543
ONEWEB-0391             
1 50471U 21132C   26164.25341111  .00000059  00000+0  11761-3 0  9995
2 50471  87.9136   6.6612 0002676  87.6998 272.4440 13.17648788217569
ONEWEB-0392             
1 50472U 21132D   26164.28379397  .00000010  00000+0 -68665-5 0  9991
2 50472  87.9145   6.6235 0002264  84.5249 275.6141 13.17648344217605
ONEWEB-0393             
1 50473U 21132E   26164.25931880  .00000050  00000+0  95514-4 0  9995
2 50473  87.9137   6.6455 0002026  85.3007 274.8356 13.17650093217599
ONEWEB-0394             
1 50474U 21132F   26164.22841882 -.00000832  00000+0 -21446-2 0  9996
2 50474  87.9165 336.2299 0001998  86.0107 274.1253 13.18675502221075
ONEWEB-0395             
1 50475U 21132G   26164.12332048  .00000469  00000+0  12864-2 0  9993
2 50475  87.8888  21.8764 0001993  89.3936 270.7420 13.11419256215180
ONEWEB-0396             
1 50476U 21132H   26164.22165746 -.00000020  00000+0 -82528-4 0  9995
2 50476  87.9169 336.2436 0001952  87.8903 272.2453 13.18684146221117
ONEWEB-0397             
1 50477U 21132J   26164.00920619 -.00000024  00000+0 -93780-4 0  9996
2 50477  87.9167 336.2859 0001895  84.2621 275.8728 13.18684730221066
ONEWEB-0398             
1 50478U 21132K   26164.01478901 -.00000463  00000+0 -13425-2 0  9993
2 50478  87.8891  21.8884 0001902  94.7478 265.3867 13.11415641215067
ONEWEB-0399             
1 50479U 21132L   26164.07753434 -.00000023  00000+0 -10046-3 0  9996
2 50479  87.8897  21.8866 0002201  76.2272 283.9101 13.11414319215062
ONEWEB-0400             
1 50480U 21132M   26164.21491918  .00000048  00000+0  89805-4 0  9995
2 50480  87.9167 336.2349 0001913  97.5132 262.6217 13.18684986221081
ONEWEB-0401             
1 50481U 21132N   26164.18456389  .00000098  00000+0  21545-3 0  9996
2 50481  87.9168 336.2378 0001666  86.6642 273.4681 13.18685811221088
ONEWEB-0402             
1 50482U 21132P   26164.22335609  .00000052  00000+0  98423-4 0  9993
2 50482  87.9168 336.2197 0001589  78.9797 281.1514 13.18685772221118
ONEWEB-0403             
1 50483U 21132Q   26164.17276081 -.00000008  00000+0 -53248-4 0  9995
2 50483  87.9168 336.2538 0001973  90.3347 269.8012 13.18684929221067
