[{"OBJECT_NAME":"ONEWEB-0388","OBJECT_ID":"2021-090AM","EPOCH":"2026-06-12T22:25:53.980320","MEAN_MOTION":13.19725008,"ECCENTRICITY":0.0001857,"INCLINATION":87.9165,"RA_OF_ASC_NODE":305.8168,"ARG_OF_PERICENTER":93.4263,"MEAN_ANOMALY":266.7083,"EPHEMERIS_TYPE":0,"CLASSIFICATION_TYPE":"U","NORAD_CAT_ID":49314,"ELEMENT_SET_NO":999,"REV_AT_EPOCH":22585,"BSTAR":-0.00013724,"MEAN_MOTION_DOT":-4.2e-07,"MEAN_MOTION_DDOT":0.0},{"OBJECT_NAME":"ONEWEB-0389","OBJECT_ID":"2021-132A","EPOCH":"2026-06-13T02:21:21.251232","MEAN_MOTION":13.17649075,"ECCENTRICITY":0.0002165,"INCLINATION":87.9134,"RA_OF_ASC_NODE":6.6816,"ARG_OF_PERICENTER":82.9757,"MEAN_ANOMALY":277.1621,"EPHEMERIS_TYPE":0,"CLASSIFICATION_TYPE":"U","NORAD_CAT_ID":50469,"ELEMENT_SET_NO":999,"REV_AT_EPOCH":21754,"BSTAR":0.00021558,"MEAN_MOTION_DOT":9.7e-07,"MEAN_MOTION_DDOT":0.0},{"OBJECT_NAME":"ONEWEB-0390","OBJECT_ID":"2021-132B","EPOCH":"2026-06-13T02:23:47.043456","MEAN_MOTION":13.17649016,"ECCENTRICITY":0.0001934,"INCLINATION":87.9136,"RA_OF_ASC_NODE":6.6821,"ARG_OF_PERICENTER":94.1679,"MEAN_ANOMALY":265.9673,"EPHEMERIS_TYPE":0,"CLASSIFICATION_TYPE":"U","NORAD_CAT_ID":50470,"ELEMENT_SET_NO":999,"REV_AT_EPOCH":21754,"BSTAR":0.00021376,"MEAN_MOTION_DOT":9.6e-07,"MEAN_MOTION_DDOT":0.0},{"OBJECT_NAME":"ONEWEB-0391","OBJECT_ID":"2021-132C","EPOCH":"2026-06-13T06:04:54.719904","MEAN_MOTION":13.17648788,"ECCENTRICITY":0.0002676,"INCLINATION":87.9136,"RA_OF_ASC_NODE":6.6612,"ARG_OF_PERICENTER":87.6998,"MEAN_ANOMALY":272.444,"EPHEMERIS_TYPE":0,"CLASSIFICATION_TYPE":"U","NORAD_CAT_ID":50471,"ELEMENT_SET_NO":999,"REV_AT_EPOCH":21756,"BSTAR":0.00011761000000000001,"MEAN_MOTION_DOT":5.9e-07,"MEAN_MOTION_DDOT":0.0},{"OBJECT_NAME":"ONEWEB-0392","OBJECT_ID":"2021-132D","EPOCH":"2026-06-13T06:48:39.799008","MEAN_MOTION":13.17648344,"ECCENTRICITY":0.0002264,"INCLINATION":87.9145,"RA_OF_ASC_NODE":6.6235,"ARG_OF_PERICENTER":84.5249,"MEAN_ANOMALY":275.6141,"EPHEMERIS_TYPE":0,"CLASSIFICATION_TYPE":"U","NORAD_CAT_ID":50472,"ELEMENT_SET_NO":999,"REV_AT_EPOCH":21760,"BSTAR":-6.8665e-06,"MEAN_MOTION_DOT":1e-07,"MEAN_MOTION_DDOT":0.0},{"OBJECT_NAME":"ONEWEB-0393","OBJECT_ID":"2021-132E","EPOCH":"2026-06-13T06:13:25.144320","MEAN_MOTION":13.17650093,"ECCENTRICITY":0.0002026,"INCLINATION":87.9137,"RA_OF_ASC_NODE":6.6455,"ARG_OF_PERICENTER":85.3007,"MEAN_ANOMALY":274.8356,"EPHEMERIS_TYPE":0,"CLASSIFICATION_TYPE":"U","NORAD_CAT_ID":50473,"ELEMENT_SET_NO":999,"REV_AT_EPOCH":21759,"BSTAR":9.551400000000001e-05,"MEAN_MOTION_DOT":5e-07,"MEAN_MOTION_DDOT":0.0},{"OBJECT_NAME":"ONEWEB-0394","OBJECT_ID":"2021-132F","EPOCH":"2026-06-13T05:28:55.386048","MEAN_MOTION":13.18675502,"ECCENTRICITY":0.0001998,"INCLINATION":87.9165,"RA_OF_ASC_NODE":336.2299,"ARG_OF_PERICENTER":86.0107,"MEAN_ANOMALY":274.1253,"EPHEMERIS_TYPE":0,"CLASSIFICATION_TYPE":"U","NORAD_CAT_ID":50474,"ELEMENT_SET_NO":999,"REV_AT_EPOCH":22107,"BSTAR":-0.0021446,"MEAN_MOTION_DOT":-8.32e-06,"MEAN_MOTION_DDOT":0.0},{"OBJECT_NAME":"ONEWEB-0395","OBJECT_ID":"2021-132G","EPOCH":"2026-06-13T02:57:34.889472","MEAN_MOTION":13.11419256,"ECCENTRICITY":0.0001993,"INCLINATION":87.8888,"RA_OF_ASC_NODE":21.8764,"ARG_OF_PERICENTER":89.3936,"MEAN_ANOMALY":270.742,"EPHEMERIS_TYPE":0,"CLASSIFICATION_TYPE":"U","NORAD_CAT_ID":50475,"ELEMENT_SET_NO":999,"REV_AT_EPOCH":21518,"BSTAR":0.0012864,"MEAN_MOTION_DOT":4.69e-06,"MEAN_MOTION_DDOT":0.0},{"OBJECT_NAME":"ONEWEB-0396","OBJECT_ID":"2021-132H","EPOCH":"2026-06-13T05:19:11.204544","MEAN_MOTION":13.18684146,"ECCENTRICITY":0.0001952,"INCLINATION":87.9169,"RA_OF_ASC_NODE":336.2436,"ARG_OF_PERICENTER":87.8903,"MEAN_ANOMALY":272.2453,"EPHEMERIS_TYPE":0,"CLASSIFICATION_TYPE":"U","NORAD_CAT_ID":50476,"ELEMENT_SET_NO":999,"REV_AT_EPOCH":22111,"BSTAR":-8.2528e-05,"MEAN_MOTION_DOT":-2e-07,"MEAN_MOTION_DDOT":0.0},{"OBJECT_NAME":"ONEWEB-0397","OBJECT_ID":"2021-132J","EPOCH":"2026-06-13T00:13:15.414816","MEAN_MOTION":13.1868473,"ECCENTRICITY":0.0001895,"INCLINATION":87.9167,"RA_OF_ASC_NODE":336.2859,"ARG_OF_PERICENTER":84.2621,"MEAN_ANOMALY":275.8728,"EPHEMERIS_TYPE":0,"CLASSIFICATION_TYPE":"U","NORAD_CAT_ID":50477,"ELEMENT_SET_NO":999,"REV_AT_EPOCH":22106,"BSTAR":-9.378e-05,"MEAN_MOTION_DOT":-2.4e-07,"MEAN_MOTION_DDOT":0.0},{"OBJECT_NAME":"ONEWEB-0398","OBJECT_ID":"2021-132K","EPOCH":"2026-06-13T00:21:17.770464","MEAN_MOTION":13.11415641,"ECCENTRICITY":0.0001902,"INCLINATION":87.8891,"RA_OF_ASC_NODE":21.8884,"ARG_OF_PERICENTER":94.7478,"MEAN_ANOMALY":265.3867,"EPHEMERIS_TYPE":0,"CLASSIFICATION_TYPE":"U","NORAD_CAT_ID":50478,"ELEMENT_SET_NO":999,"REV_AT_EPOCH":21506,"BSTAR":-0.0013425000000000002,"MEAN_MOTION_DOT":-4.63e-06,"MEAN_MOTION_DDOT":0.0},{"OBJECT_NAME":"ONEWEB-0399","OBJECT_ID":"2021-132L","EPOCH":"2026-06-13T01:51:38.966976","MEAN_MOTION":13.11414319,"ECCENTRICITY":0.0002201,"INCLINATION":87.8897,"RA_OF_ASC_NODE":21.8866,"ARG_OF_PERICENTER":76.2272,"MEAN_ANOMALY":283.9101,"EPHEMERIS_TYPE":0,"CLASSIFICATION_TYPE":"U","NORAD_CAT_ID":50479,"ELEMENT_SET_NO":999,"REV_AT_EPOCH":21506,"BSTAR":-0.00010046,"MEAN_MOTION_DOT":-2.3e-07,"MEAN_MOTION_DDOT":0.0},{"OBJECT_NAME":"ONEWEB-0400","OBJECT_ID":"2021-132M","EPOCH":"2026-06-13T05:09:29.017152","MEAN_MOTION":13.18684986,"ECCENTRICITY":0.0001913,"INCLINATION":87.9167,"RA_OF_ASC_NODE":336.2349,"ARG_OF_PERICENTER":97.5132,"MEAN_ANOMALY":262.6217,"EPHEMERIS_TYPE":0,"CLASSIFICATION_TYPE":"U","NORAD_CAT_ID":50480,"ELEMENT_SET_NO":999,"REV_AT_EPOCH":22108,"BSTAR":8.980500000000001e-05,"MEAN_MOTION_DOT":4.8e-07,"MEAN_MOTION_DDOT":0.0},{"OBJECT_NAME":"ONEWEB-0401","OBJECT_ID":"2021-132N","EPOCH":"2026-06-13T04:25:46.320096","MEAN_MOTION":13.18685811,"ECCENTRICITY":0.0001666,"INCLINATION":87.9168,"RA_OF_ASC_NODE":336.2378,"ARG_OF_PERICENTER":86.6642,"MEAN_ANOMALY":273.4681,"EPHEMERIS_TYPE":0,"CLASSIFICATION_TYPE":"U","NORAD_CAT_ID":50481,"ELEMENT_SET_NO":999,"REV_AT_EPOCH":22108,"BSTAR":0.00021545,"MEAN_MOTION_DOT":9.8e-07,"MEAN_MOTION_DDOT":0.0},{"OBJECT_NAME":"ONEWEB-0402","OBJECT_ID":"2021-132P","EPOCH":"2026-06-13T05:21:37.966176","MEAN_MOTION":13.18685772,"ECCENTRICITY":0.0001589,"INCLINATION":87.9168,"RA_OF_ASC_NODE":336.2197,"ARG_OF_PERICENTER":78.9797,"MEAN_ANOMALY":281.1514,"EPHEMERIS_TYPE":0,"CLASSIFICATION_TYPE":"U","NORAD_CAT_ID":50482,"ELEMENT_SET_NO":999,"REV_AT_EPOCH":22111,"BSTAR":9.842300000000002e-05,"MEAN_MOTION_DOT":5.2e-07,"MEAN_MOTION_DDOT":0.0},{"OBJECT_NAME":"ONEWEB-0403","OBJECT_ID":"2021-132Q","EPOCH":"2026-06-13T04:08:46.533984","MEAN_MOTION":13.18684929,"ECCENTRICITY":0.0001973,"INCLINATION":87.9168,"RA_OF_ASC_NODE":336.2538,"ARG_OF_PERICENTER":90.3347,"MEAN_ANOMALY":269.8012,"EPHEMERIS_TYPE":0,"CLASSIFICATION_TYPE":"U","NORAD_CAT_ID":50483,"ELEMENT_SET_NO":999,"REV_AT_EPOCH":22106,"BSTAR":-5.3247999999999996e-05,"MEAN_MOTION_DOT":-8e-08,"MEAN_MOTION_DDOT":0.0}]